OBJECT_NAME,OBJECT_ID,EPOCH,MEAN_MOTION,ECCENTRICITY,INCLINATION,RA_OF_ASC_NODE,ARG_OF_PERICENTER,MEAN_ANOMALY,EPHEMERIS_TYPE,CLASSIFICATION_TYPE,NORAD_CAT_ID,ELEMENT_SET_NO,REV_AT_EPOCH,BSTAR,MEAN_MOTION_DOT,MEAN_MOTION_DDOT
SATELIOT_2,2024-149BU,2026-05-20T11:23:33.355968,14.96241841,.00016064,97.6830,215.9377,116.2269,243.9117,0,U,60534,999,9582,.11715384E-3,.1265E-4,0
NIGHTJAR,2024-149BV,2026-05-20T11:43:37.728768,14.98834376,.00023261,97.6837,217.5809,126.6827,233.4610,0,U,60535,999,13872,.19879282E-3,.234E-4,0
LEMUR-2-MARHISYAM,2024-149BW,2026-05-20T04:20:37.832352,15.10603986,.00021712,97.6873,222.9486,176.5937,183.5307,0,U,60536,999,9625,.51677249E-3,.8476E-4,0
SATELIOT_4,2024-149BX,2026-05-20T03:45:59.345568,14.96556293,.00036466,97.6744,215.1722,114.2749,245.8854,0,U,60537,999,9578,.16144743E-3,.178E-4,0
PICO-02A021,2024-149BY,2026-05-20T11:21:09.834336,15.02958507,.00073582,97.6763,219.5522,107.1000,253.1032,0,U,60538,999,9557,.23433337E-3,.309E-4,0
ICEYE-X43,2024-149BZ,2026-05-20T11:21:17.022816,14.99774686,.00054326,97.6761,217.8210,172.2759,187.8549,0,U,60539,999,9596,.16782332E-3,.2016E-4,0
HAWK-10A,2024-149CA,2026-05-20T03:40:10.173792,14.96413105,.00043223,97.6896,216.5469,145.6509,214.4993,0,U,60540,999,9579,.12498102E-3,.1359E-4,0
UMBRA-09,2024-149CB,2026-05-20T05:48:53.381664,15.17108749,.0001242,97.6964,226.9911,110.7141,249.4225,0,U,60541,999,9648,.70829E-3,.13986E-3,0
QPS-SAR-8 (AMATERU-IV),2024-149CC,2026-05-20T04:24:30.850560,15.03803813,.00032403,97.6646,219.5753,184.6410,175.4786,0,U,60542,999,9606,.24380869E-3,.329E-4,0
ARCTIC WEATHER SATELLITE,2024-149CD,2026-05-20T03:30:19.406016,14.89803096,.00022466,97.6808,211.4116,161.6034,198.5265,0,U,60543,999,9512,.64928626E-4,.569E-5,0
CAPELLA-15 (ACADIA-5),2024-149CE,2026-05-20T05:31:27.958080,14.92491900,.0004865,97.6778,213.8286,156.5789,203.5653,0,U,60544,999,9568,.77235E-4,.738E-5,0
HAWK-10B,2024-149CF,2026-05-20T14:53:59.176320,14.96415552,.00056831,97.6818,216.3897,167.8993,192.2366,0,U,60545,999,9586,.12888208E-3,.1404E-4,0
ICEYE-X39,2024-149CG,2026-05-20T10:56:47.699232,14.99711418,.00028139,97.6799,217.8585,172.2252,187.9016,0,U,60546,999,9596,.10908492E-3,.1287E-4,0
UMBRA-10,2024-149CH,2026-05-20T05:48:14.288256,15.17094652,.0002198,97.6974,227.0162,100.1564,259.9917,0,U,60547,999,9649,.5878E-3,.11586E-3,0
ICEYE-X33,2024-149CJ,2026-05-20T13:38:39.842880,15.00904123,.00000888,97.7188,219.8751,266.8604,93.2610,0,U,60548,999,9606,.34250917E-3,.4302E-4,0
ICEYE-X40,2024-149CK,2026-05-20T10:42:23.395104,14.97848747,.00051968,97.6822,217.3895,151.0874,209.0637,0,U,60549,999,9592,.78195154E-4,.862E-5,0
SATELIOT_1,2024-149CL,2026-05-20T04:07:58.101600,14.97947690,.00072093,97.6762,216.5384,153.3354,206.8241,0,U,60550,999,9587,.13598691E-3,.1546E-4,0
BRO-14,2024-149CM,2026-05-20T04:08:33.365760,14.96119990,.00066167,97.6880,216.4537,177.1189,183.0071,0,U,60551,999,9580,.58417439E-4,.6E-5,0
SATELIOT_3,2024-149CN,2026-05-20T05:08:58.789248,14.97920957,.00057138,97.6818,217.3450,163.6536,196.4871,0,U,60552,999,9589,.12841337E-3,.1455E-4,0
BRO-15,2024-149CP,2026-05-20T11:43:52.720032,14.96074816,.00084101,97.6808,216.3919,169.1672,190.9732,0,U,60553,999,9586,.92195625E-4,.979E-5,0
UM5-RIBAT,2024-149CQ,2026-05-20T11:21:18.517536,15.00897720,.00036469,97.6651,218.6473,106.1015,254.0611,0,U,60554,999,9603,.14909283E-3,.1839E-4,0
UM5-EOSAT,2024-149CR,2026-05-20T04:20:17.625984,15.01303510,.00074195,97.6658,219.2650,196.8584,163.2394,0,U,60555,999,9601,.16782723E-3,.21E-4,0
LASARSAT,2024-247Q,2026-05-20T04:21:40.815360,15.44470942,.00056843,44.9759,59.3627,171.8355,188.2628,0,U,62391,999,7898,.50705105E-3,.23734E-3,0
CROCUBE,2024-247T,2026-05-20T03:31:26.575968,15.46099852,.00054203,44.9733,57.3164,174.7904,185.3043,0,U,62394,999,7900,.53126487E-3,.26334E-3,0
TEVEL2-4,2025-052D,2026-05-20T06:20:59.470080,15.33531541,.0002557,97.3930,36.6282,156.1906,203.9455,0,U,63213,999,6583,.42966E-3,.13859E-3,0
TEVEL2-5,2025-052E,2026-05-20T11:28:06.603744,15.33379108,.00025372,97.3929,36.7970,154.8696,205.2670,0,U,63214,999,6586,.41132246E-3,.13199E-3,0
TEVEL2-6,2025-052F,2026-05-20T05:29:00.301344,15.33334982,.00026,97.3931,36.5324,156.6352,203.5008,0,U,63215,999,6582,.4113E-3,.1318E-3,0
TEVEL2-1,2025-052H,2026-05-20T10:39:21.548160,15.32845273,.00021015,97.3904,36.4041,168.6405,191.4885,0,U,63217,999,6584,.40832152E-3,.12883E-3,0
TEVEL2-3,2025-052J,2026-05-20T12:07:00.024960,15.32895674,.00021019,97.3905,36.4835,168.8046,191.3243,0,U,63218,999,6585,.40085228E-3,.12666E-3,0
TEVEL2-2,2025-052K,2026-05-20T05:57:59.704416,15.32846888,.0002026,97.3906,36.2107,169.9217,190.2066,0,U,63219,999,6581,.42223E-3,.13326E-3,0
