SATELIOT_2              
1 60534U 24149BU  26140.47469162  .00001265  00000+0  11715-3 0  9991
2 60534  97.6830 215.9377 0001606 116.2269 243.9117 14.96241841 95828
NIGHTJAR                
1 60535U 24149BV  26140.48863112  .00002340  00000+0  19879-3 0  9990
2 60535  97.6837 217.5809 0002326 126.6827 233.4610 14.98834376138721
LEMUR-2-MARHISYAM       
1 60536U 24149BW  26140.18099343  .00008476  00000+0  51677-3 0  9993
2 60536  97.6873 222.9486 0002171 176.5937 183.5307 15.10603986 96252
SATELIOT_4              
1 60537U 24149BX  26140.15693687  .00001780  00000+0  16145-3 0  9994
2 60537  97.6744 215.1722 0003646 114.2749 245.8854 14.96556293 95782
PICO-02A021             
1 60538U 24149BY  26140.47303049  .00003090  00000+0  23433-3 0  9994
2 60538  97.6763 219.5522 0007358 107.1000 253.1032 15.02958507 95574
ICEYE-X43               
1 60539U 24149BZ  26140.47311369  .00002016  00000+0  16782-3 0  9995
2 60539  97.6761 217.8210 0005432 172.2759 187.8549 14.99774686 95961
HAWK-10A                
1 60540U 24149CA  26140.15289553  .00001359  00000+0  12498-3 0  9990
2 60540  97.6896 216.5469 0004322 145.6509 214.4993 14.96413105 95792
UMBRA-09                
1 60541U 24149CB  26140.24228451  .00013986  00000+0  70829-3 0  9992
2 60541  97.6964 226.9911 0001242 110.7141 249.4225 15.17108749 96481
QPS-SAR-8 (AMATERU-IV)  
1 60542U 24149CC  26140.18369040  .00003290  00000+0  24381-3 0  9995
2 60542  97.6646 219.5753 0003240 184.6410 175.4786 15.03803813 96063
ARCTIC WEATHER SATELLITE
1 60543U 24149CD  26140.14605794  .00000569  00000+0  64929-4 0  9990
2 60543  97.6808 211.4116 0002246 161.6034 198.5265 14.89803096 95120
CAPELLA-15 (ACADIA-5)   
1 60544U 24149CE  26140.23018470  .00000738  00000+0  77235-4 0  9992
2 60544  97.6778 213.8286 0004865 156.5789 203.5653 14.92491900 95680
HAWK-10B                
1 60545U 24149CF  26140.62082380  .00001404  00000+0  12888-3 0  9990
2 60545  97.6818 216.3897 0005683 167.8993 192.2366 14.96415552 95861
ICEYE-X39               
1 60546U 24149CG  26140.45610763  .00001287  00000+0  10908-3 0  9994
2 60546  97.6799 217.8585 0002813 172.2252 187.9016 14.99711418 95967
UMBRA-10                
1 60547U 24149CH  26140.24183204  .00011586  00000+0  58780-3 0  9990
2 60547  97.6974 227.0162 0002198 100.1564 259.9917 15.17094652 96493
ICEYE-X33               
1 60548U 24149CJ  26140.56851670  .00004302  00000+0  34251-3 0  9990
2 60548  97.7188 219.8751 0000088 266.8604  93.2610 15.00904123 96063
ICEYE-X40               
1 60549U 24149CK  26140.44610411  .00000862  00000+0  78195-4 0  9997
2 60549  97.6822 217.3895 0005196 151.0874 209.0637 14.97848747 95923
SATELIOT_1              
1 60550U 24149CL  26140.17220025  .00001546  00000+0  13599-3 0  9993
2 60550  97.6762 216.5384 0007209 153.3354 206.8241 14.97947690 95874
BRO-14                  
1 60551U 24149CM  26140.17260840  .00000600  00000+0  58417-4 0  9992
2 60551  97.6880 216.4537 0006616 177.1189 183.0071 14.96119990 95809
SATELIOT_3              
1 60552U 24149CN  26140.21456932  .00001455  00000+0  12841-3 0  9996
2 60552  97.6818 217.3450 0005713 163.6536 196.4871 14.97920957 95897
BRO-15                  
1 60553U 24149CP  26140.48880463  .00000979  00000+0  92196-4 0  9998
2 60553  97.6808 216.3919 0008410 169.1672 190.9732 14.96074816 95860
UM5-RIBAT               
1 60554U 24149CQ  26140.47313099  .00001839  00000+0  14909-3 0  9995
2 60554  97.6651 218.6473 0003646 106.1015 254.0611 15.00897720 96036
UM5-EOSAT               
1 60555U 24149CR  26140.18075956  .00002100  00000+0  16783-3 0  9995
2 60555  97.6658 219.2650 0007419 196.8584 163.2394 15.01303510 96014
LASARSAT                
1 62391U 24247Q   26140.18172240  .00023734  00000+0  50705-3 0  9996
2 62391  44.9759  59.3627 0005684 171.8355 188.2628 15.44470942 78983
CROCUBE                 
1 62394U 24247T   26140.14683537  .00026334  00000+0  53126-3 0  9990
2 62394  44.9733  57.3164 0005420 174.7904 185.3043 15.46099852 79004
TEVEL2-4                
1 63213U 25052D   26140.26457720  .00013859  00000+0  42966-3 0  9990
2 63213  97.3930  36.6282 0002557 156.1906 203.9455 15.33531541 65833
TEVEL2-5                
1 63214U 25052E   26140.47785421  .00013199  00000+0  41132-3 0  9997
2 63214  97.3929  36.7970 0002537 154.8696 205.2670 15.33379108 65862
TEVEL2-6                
1 63215U 25052F   26140.22847571  .00013180  00000+0  41130-3 0  9994
2 63215  97.3931  36.5324 0002600 156.6352 203.5008 15.33334982 65820
TEVEL2-1                
1 63217U 25052H   26140.44399940  .00012883  00000+0  40832-3 0  9999
2 63217  97.3904  36.4041 0002101 168.6405 191.4885 15.32845273 65844
TEVEL2-3                
1 63218U 25052J   26140.50486140  .00012666  00000+0  40085-3 0  9995
2 63218  97.3905  36.4835 0002101 168.8046 191.3243 15.32895674 65858
TEVEL2-2                
1 63219U 25052K   26140.24860769  .00013326  00000+0  42223-3 0  9990
2 63219  97.3906  36.2107 0002026 169.9217 190.2066 15.32846888 65818
